STARLINK-36565          
1 67544U 26014N   26050.58131841  .00267849  00000+0  17315-2 0  9997
2 67544  97.2832 294.6350 0002840  95.2510 264.9080 15.75314432  5722
STARLINK-36583          
1 67545U 26014P   26049.84298851  .00236639  00000+0  15369-2 0  9990
2 67545  97.2842 293.8012 0001131  89.7240 270.4154 15.75293469  5607
STARLINK-36580          
1 67546U 26014Q   26050.14263708  .00361313  00000+0  23069-2 0  9993
2 67546  97.2832 294.1595 0001453  60.1929 299.9481 15.75343135  5651
STARLINK-36584          
1 67547U 26014R   26050.58336806  .00209375  00000+0  13755-2 0  9992
2 67547  97.2841 294.6645 0001522  91.1873 346.5202 15.75105743  5776
STARLINK-36586          
1 67548U 26014S   26050.61763251  .00420849  00000+0  20896-2 0  9990
2 67548  97.2832 294.7386 0001787  97.2879 262.8592 15.80857826  5736
STARLINK-36564          
1 67549U 26014T   26050.15075293  .00218704  00000+0  14255-2 0  9999
2 67549  97.2840 294.1477 0002257  73.3275 286.8238 15.75261063  5592
STARLINK-36563          
1 67550U 26014U   26050.14651504  .00205421  00000+0  13418-2 0  9997
2 67550  97.2839 294.1538 0001757 115.3810 244.7637 15.75249107  5654
STARLINK-36566          
1 67551U 26014V   26050.14440212  .00352027  00000+0  22495-2 0  9990
2 67551  97.2829 294.1559 0001997  33.3094 326.8297 15.75349336  5644
STARLINK-36567          
1 67552U 26014W   26050.15286776  .00196223  00000+0  12837-2 0  9998
2 67552  97.2839 294.1387 0001110  59.8387 300.2988 15.75239600  5645
STARLINK-36569          
1 67553U 26014X   26050.57144901  .00274437  00000+0  17748-2 0  9998
2 67553  97.2841 294.6452 0002410  84.8007 275.3533 15.75287225  5710
STARLINK-36395          
1 67554U 26014Y   26050.14721989  .00259818  00000+0  16850-2 0  9998
2 67554  97.2843 294.1505 0001619 112.1480 247.9958 15.75263388  5649
STARLINK-36559          
1 67555U 26014Z   26050.46627421  .00296183  00000+0  19135-2 0  9995
2 67555  97.2841 294.4799 0001723 101.3650 258.7809 15.75250299  5698
